[{"OBJECT_NAME":"TIANQI-12","OBJECT_ID":"2021-039D","EPOCH":"2026-03-09T20:15:13.550976","MEAN_MOTION":15.10910107,"ECCENTRICITY":0.00035548,"INCLINATION":34.9981,"RA_OF_ASC_NODE":219.5618,"ARG_OF_PERICENTER":141.9564,"MEAN_ANOMALY":218.1398,"EPHEMERIS_TYPE":0,"CLASSIFICATION_TYPE":"U","NORAD_CAT_ID":48426,"ELEMENT_SET_NO":999,"REV_AT_EPOCH":26518,"BSTAR":0.00053797391,"MEAN_MOTION_DOT":9.139e-5,"MEAN_MOTION_DDOT":0},{"OBJECT_NAME":"STARLINK-6091","OBJECT_ID":"2023-046AC","EPOCH":"2026-03-09T22:00:01.999584","MEAN_MOTION":15.12146567,"ECCENTRICITY":0.00019288,"INCLINATION":42.9992,"RA_OF_ASC_NODE":144.7616,"ARG_OF_PERICENTER":284.3584,"MEAN_ANOMALY":155.5208,"EPHEMERIS_TYPE":0,"CLASSIFICATION_TYPE":"U","NORAD_CAT_ID":56119,"ELEMENT_SET_NO":999,"REV_AT_EPOCH":577,"BSTAR":0.00049828792,"MEAN_MOTION_DOT":8.529e-5,"MEAN_MOTION_DDOT":0}]
